NORAD_CAT_ID,OBJECT_NAME,OBJECT_TYPE,EPOCH,MEAN_MOTION,ECCENTRICITY,INCLINATION,RA_OF_ASC_NODE,ARG_OF_PERICENTER,MEAN_ANOMALY,BSTAR,MEAN_MOTION_DOT,MEAN_MOTION_DDOT,TLE_LINE0,TLE_LINE1,TLE_LINE2,SEMIMAJOR_AXIS,PERIOD,APOGEE,PERIGEE,DECAYED
53712.0,STARLINK-4683,PAYLOAD,2023-09-23 10:16:55,15.08843905,0.0001759,53.2185,321.1178,72.6611,287.4573,2.6761e-05,1.38e-06,0.0,0 STARLINK-4683,1 53712U 22107N   23266.42842342  .00000138  00000-0  26761-4 0  9996,2 53712  53.2185 321.1178 0001759  72.6611 287.4573 15.08843905 58431,6917.868,95.437,540.95,538.517,0.0
53712.0,STARLINK-4683,PAYLOAD,2023-09-24 10:07:42,15.08846361,0.0001614,53.2182,316.6555,92.2476,267.8701,-3.4968e-05,-8.45e-06,0.0,0 STARLINK-4683,1 53712U 22107N   23267.42201892 -.00000845  00000-0 -34968-4 0  9991,2 53712  53.2182 316.6555 0001614  92.2476 267.8701 15.08846361 59045,6917.861,95.437,540.842,538.609,0.0
53712.0,STARLINK-4683,PAYLOAD,2023-09-25 02:01:34,15.08823872,0.0001616,53.2182,313.6846,88.4224,271.6953,0.00021853,3.19e-05,0.0,0 STARLINK-4683,1 53712U 22107N   23268.08442474  .00003190  00000-0  21853-3 0  9999,2 53712  53.2182 313.6846 0001616  88.4224 271.6953 15.08823872 58688,6917.93,95.439,540.913,538.677,0.0
53712.0,STARLINK-4683,PAYLOAD,2023-09-25 09:58:29,15.08845047,0.0001572,53.2175,312.197,86.4155,273.7017,8.4075e-05,1.05e-05,0.0,0 STARLINK-4683,1 53712U 22107N   23268.41561633  .00001050  00000-0  84075-4 0  9994,2 53712  53.2175 312.1970 0001572  86.4155 273.7017 15.08845047 58732,6917.865,95.437,540.817,538.642,0.0
53712.0,STARLINK-4683,PAYLOAD,2023-09-26 03:27:44,15.0883632,0.000158,53.2184,308.9268,95.4076,264.7097,6.6299e-06,-1.83e-06,0.0,0 STARLINK-4683,1 53712U 22107N   23269.14426470 -.00000183  00000-0  66299-5 0  9990,2 53712  53.2184 308.9268 0001580  95.4076 264.7097 15.08836320 58840,6917.892,95.438,540.85,538.664,0.0
53712.0,STARLINK-4683,PAYLOAD,2023-09-26 08:13:53,15.08838528,0.0001598,53.218,308.0345,95.7615,264.3559,1.9555e-05,2.3e-07,0.0,0 STARLINK-4683,1 53712U 22107N   23269.34298313  .00000023  00000-0  19555-4 0  9999,2 53712  53.2180 308.0345 0001598  95.7615 264.3559 15.08838528 59330,6917.885,95.438,540.855,538.644,0.0
53712.0,STARLINK-4683,PAYLOAD,2023-09-27 09:40:04,15.08829346,0.0001669,53.2178,303.2776,95.0591,265.0592,0.0001662,2.357e-05,0.0,0 STARLINK-4683,1 53712U 22107N   23270.40282678  .00002357  00000-0  16620-3 0  9996,2 53712  53.2178 303.2776 0001669  95.0591 265.0592 15.08829346 59037,6917.913,95.438,540.933,538.623,0.0
53712.0,STARLINK-4683,PAYLOAD,2023-09-27 11:15:26,15.08842592,0.0001651,53.2176,302.9791,94.1286,265.9895,3.8013e-05,3.17e-06,0.0,0 STARLINK-4683,1 53712U 22107N   23270.46906220  .00000317  00000-0  38013-4 0  9993,2 53712  53.2176 302.9791 0001651  94.1286 265.9895 15.08842592 59505,6917.872,95.437,540.88,538.595,0.0
53712.0,STARLINK-4683,PAYLOAD,2023-09-28 12:41:37,15.08851061,0.000154,53.2165,298.2195,96.2704,263.8464,-0.00021385,-3.691e-05,0.0,0 STARLINK-4683,1 53712U 22107N   23271.52890699 -.00003691  00000-0 -21385-3 0  9996,2 53712  53.2165 298.2195 0001540  96.2704 263.8464 15.08851061 59200,6917.847,95.437,540.777,538.646,0.0
53712.0,STARLINK-4683,PAYLOAD,2023-09-29 03:00:05,15.08827607,0.0001788,53.2175,295.5425,103.9982,256.1209,0.0002154,3.141e-05,0.0,0 STARLINK-4683,1 53712U 22107N   23272.12506825  .00003141  00000-0  21540-3 0  9999,2 53712  53.2175 295.5425 0001788 103.9982 256.1209 15.08827607 59295,6917.918,95.438,541.02,538.546,0.0
53712.0,STARLINK-4683,PAYLOAD,2023-09-29 07:46:15,15.08847844,0.0001711,53.2175,294.6504,84.033,276.0857,3.9276e-05,3.37e-06,0.0,0 STARLINK-4683,1 53712U 22107N   23272.32378507  .00000337  00000-0  39276-4 0  9995,2 53712  53.2175 294.6504 0001711  84.0330 276.0857 15.08847844 59324,6917.856,95.437,540.905,538.538,0.0
53712.0,STARLINK-4683,PAYLOAD,2023-09-29 23:40:06,15.0884544,0.0001734,53.2167,291.6777,73.5978,286.5204,0.00011057,1.472e-05,0.0,0 STARLINK-4683,1 53712U 22107N   23272.98618350  .00001472  00000-0  11057-3 0  9997,2 53712  53.2167 291.6777 0001734  73.5978 286.5204 15.08845440 59883,6917.864,95.437,540.928,538.529,0.0
53712.0,STARLINK-4683,PAYLOAD,2023-09-30 10:47:47,15.08850232,0.000161,53.2164,289.5948,88.3436,271.7741,0.00014835,2.074e-05,0.0,0 STARLINK-4683,1 53712U 22107N   23273.44985629  .00002074  00000-0  14835-3 0  9991,2 53712  53.2164 289.5948 0001610  88.3436 271.7741 15.08850232 59496,6917.849,95.437,540.828,538.6,0.0
53712.0,STARLINK-4683,PAYLOAD,2023-10-01 01:06:16,15.0883544,0.0001694,53.2165,286.9183,101.2013,258.917,-2.4795e-05,-6.83e-06,0.0,0 STARLINK-4683,1 53712U 22107N   23274.04602998 -.00000683  00000-0 -24795-4 0  9996,2 53712  53.2165 286.9183 0001694 101.2013 258.9170 15.08835440 59584,6917.894,95.438,540.931,538.587,0.0
53712.0,STARLINK-4683,PAYLOAD,2023-10-01 07:27:49,15.08841016,0.000166,53.2169,285.7297,98.427,261.691,-3.5124e-05,-8.47e-06,0.0,0 STARLINK-4683,1 53712U 22107N   23274.31098734 -.00000847  00000-0 -35124-4 0  9993,2 53712  53.2169 285.7297 0001660  98.4270 261.6910 15.08841016 60082,6917.877,95.437,540.891,538.594,0.0
53712.0,STARLINK-4683,PAYLOAD,2023-10-02 07:18:36,15.08837067,0.0001644,53.2163,281.2691,91.4458,268.6722,-5.5068e-05,-1.164e-05,0.0,0 STARLINK-4683,1 53712U 22107N   23275.30459209 -.00001164  00000-0 -55068-4 0  9993,2 53712  53.2163 281.2691 0001644  91.4458 268.6722 15.08837067 59771,6917.889,95.438,540.892,538.617,0.0
53712.0,STARLINK-4683,PAYLOAD,2023-10-03 07:09:23,15.08839739,0.0001583,53.2168,276.8099,95.6418,264.4755,0.00014765,2.063e-05,0.0,0 STARLINK-4683,1 53712U 22107N   23276.29818833  .00002063  00000-0  14765-3 0  9999,2 53712  53.2168 276.8099 0001583  95.6418 264.4755 15.08839739 59927,6917.881,95.438,540.841,538.651,0.0
53712.0,STARLINK-4683,PAYLOAD,2023-10-03 16:41:42,15.08840046,0.0001579,53.2165,275.0264,93.4853,266.632,1.8276e-05,3e-08,0.0,0 STARLINK-4683,1 53712U 22107N   23276.69563233  .00000003  00000-0  18276-4 0  9998,2 53712  53.2165 275.0264 0001579  93.4853 266.6320 15.08840046 60447,6917.88,95.438,540.838,538.653,0.0
53712.0,STARLINK-4683,PAYLOAD,2023-10-04 00:38:38,15.08831059,0.0001672,53.2173,273.5405,97.1913,262.9269,8.3336e-05,1.038e-05,0.0,0 STARLINK-4683,1 53712U 22107N   23277.02683877  .00001038  00000-0  83336-4 0  9991,2 53712  53.2173 273.5405 0001672  97.1913 262.9269 15.08831059 60038,6917.908,95.438,540.929,538.616,0.0
53712.0,STARLINK-4683,PAYLOAD,2023-10-04 16:32:29,15.08841938,0.000172,53.2177,270.568,99.149,260.9697,0.00010031,1.309e-05,0.0,0 STARLINK-4683,1 53712U 22107N   23277.68923342  .00001309  00000-0  10031-3 0  9999,2 53712  53.2177 270.5680 0001720  99.1490 260.9697 15.08841938 60131,6917.874,95.437,540.929,538.55,0.0
53712.0,STARLINK-4683,PAYLOAD,2023-10-05 10:01:43,15.08849189,0.0001599,53.2163,267.2922,92.6718,267.4457,7.7873e-05,9.52e-06,0.0,0 STARLINK-4683,1 53712U 22107N   23278.41786979  .00000952  00000-0  77873-4 0  9995,2 53712  53.2163 267.2922 0001599  92.6718 267.4457 15.08849189 60708,6917.852,95.437,540.823,538.611,0.0
53712.0,STARLINK-4683,PAYLOAD,2023-10-05 16:23:16,15.08842315,0.0001572,53.2168,266.1011,85.7027,274.4145,6.0842e-05,6.8e-06,0.0,0 STARLINK-4683,1 53712U 22107N   23278.68283468  .00000680  00000-0  60842-4 0  9995,2 53712  53.2168 266.1011 0001572  85.7027 274.4145 15.08842315 60286,6917.873,95.437,540.826,538.651,0.0
53712.0,STARLINK-4683,PAYLOAD,2023-10-06 06:41:45,15.08844961,0.000139,53.2178,263.4245,86.1882,273.9269,4.2478e-05,3.88e-06,0.0,0 STARLINK-4683,1 53712U 22107N   23279.27899437  .00000388  00000-0  42478-4 0  9990,2 53712  53.2178 263.4245 0001390  86.1882 273.9269 15.08844961 60839,6917.865,95.437,540.692,538.769,0.0
53712.0,STARLINK-4683,PAYLOAD,2023-10-07 08:07:55,15.08837,0.0001712,53.2176,258.6679,92.3769,267.7419,3.1798e-05,2.18e-06,0.0,0 STARLINK-4683,1 53712U 22107N   23280.33884195  .00000218  00000-0  31798-4 0  9999,2 53712  53.2176 258.6679 0001712  92.3769 267.7419 15.08837000 60536,6917.89,95.438,540.939,538.57,0.0
53712.0,STARLINK-4683,PAYLOAD,2023-10-07 16:04:51,15.08842909,0.0001545,53.2167,257.1799,112.4827,247.6329,3.9534e-05,3.41e-06,0.0,0 STARLINK-4683,1 53712U 22107N   23280.67003601  .00000341  00000-0  39534-4 0  9994,2 53712  53.2167 257.1799 0001545 112.4827 247.6329 15.08842909 60582,6917.871,95.437,540.805,538.668,0.0
53712.0,STARLINK-4683,PAYLOAD,2023-10-08 07:58:41,15.08850832,0.0001499,53.2168,254.2054,96.7589,263.3573,0.00015824,2.232e-05,0.0,0 STARLINK-4683,1 53712U 22107N   23281.33242814  .00002232  00000-0  15824-3 0  9995,2 53712  53.2168 254.2054 0001499  96.7589 263.3573 15.08850832 60683,6917.847,95.437,540.749,538.675,0.0
53712.0,STARLINK-4683,PAYLOAD,2023-10-08 15:55:38,15.08835986,0.0001616,53.2186,252.7196,98.1824,261.9352,5.0375e-05,5.14e-06,0.0,0 STARLINK-4683,1 53712U 22107N   23281.66364138  .00000514  00000-0  50375-4 0  9997,2 53712  53.2186 252.7196 0001616  98.1824 261.9352 15.08835986 60730,6917.893,95.438,540.876,538.64,0.0
53712.0,STARLINK-4683,PAYLOAD,2023-10-09 03:03:19,15.08845867,0.000132,53.217,250.6394,98.2183,261.8959,0.000103,1.352e-05,0.0,0 STARLINK-4683,1 53712U 22107N   23282.12731341  .00001352  00000-0  10300-3 0  9997,2 53712  53.2170 250.6394 0001320  98.2183 261.8959 15.08845867 60800,6917.862,95.437,540.641,538.814,0.0
53712.0,STARLINK-4683,PAYLOAD,2023-10-09 07:49:28,15.08852128,0.0001482,53.2171,249.7456,99.7305,260.3855,0.00020497,2.977e-05,0.0,0 STARLINK-4683,1 53712U 22107N   23282.32602977  .00002977  00000-0  20497-3 0  9993,2 53712  53.2171 249.7456 0001482  99.7305 260.3855 15.08852128 61291,6917.843,95.437,540.734,538.683,0.0
53712.0,STARLINK-4683,PAYLOAD,2023-10-10 02:54:07,15.08840023,0.0001779,53.2167,246.1761,114.73,245.3877,-1.6291e-05,-5.47e-06,0.0,0 STARLINK-4683,1 53712U 22107N   23283.12091648 -.00000547  00000-0 -16291-4 0  9990,2 53712  53.2167 246.1761 0001779 114.7300 245.3877 15.08840023 60958,6917.88,95.438,540.976,538.515,0.0
